STARLINK-36300          
1 68303U 26057K   26099.31841275  .00064920  00000+0  33666-3 0  9994
2 68303  97.2840 223.2444 0000412 355.1112   5.0152 15.80848097  3105
STARLINK-36849          
1 68304U 26057L   26099.31691076  .00064938  00000+0  33670-3 0  9991
2 68304  97.2839 223.2470 0001217  86.0158 274.1249 15.80851351  3100
STARLINK-36277          
1 68305U 26057M   26099.25002315 -.00028452  00000+0 -19041-3 0  9996
2 68305  97.2851 223.1596 0001284  84.7977 217.6426 15.75203439  4282
STARLINK-36307          
1 68306U 26057N   26099.31616010  .00171402  00000+0  87554-3 0  9993
2 68306  97.2840 223.2476 0001298  83.3510 276.7906 15.80880246  3104
STARLINK-36264          
1 68307U 26057P   26099.31465733  .00051542  00000+0  26807-3 0  9994
2 68307  97.2841 223.2493 0001281   2.0772 358.0501 15.80829493  3107
STARLINK-37138          
1 68308U 26057Q   26099.31390220  .00154494  00000+0  79024-3 0  9992
2 68308  97.2840 223.2487 0000969  78.6443 281.4934 15.80895505  3102
STARLINK-37149          
1 68309U 26057R   26099.25002315 -.01875664  00000+0 -12566-1 0  9999
2 68309  97.2842 223.1817 0001523  62.8471 295.5102 15.78260639  4064
STARLINK-37148          
1 68310U 26057S   26099.31164457  .00134174  00000+0  68791-3 0  9998
2 68310  97.2843 223.2513 0001104 114.9067 245.2316 15.80898499  3103
STARLINK-37140          
1 68311U 26057T   26099.31239982  .00098087  00000+0  50569-3 0  9991
2 68311  97.2841 223.2514 0001072  67.7754 292.3628 15.80876541  3108
STARLINK-36854          
1 68312U 26057U   26099.31089645  .00164053  00000+0  83770-3 0  9998
2 68312  97.2841 223.2530 0001534  99.1962 260.9480 15.80907362  3103
STARLINK-36815          
1 68313U 26057V   26099.31014426  .00149060  00000+0  76287-3 0  9990
2 68313  97.2841 223.2543 0001212  95.0380 265.1027 15.80897534  3103
STARLINK-37155          
1 68314U 26057W   26099.30863895  .00192352  00000+0  97800-3 0  9998
2 68314  97.2841 223.2558 0001381 100.2783 259.8641 15.80927177  3102
STARLINK-37150          
1 68315U 26057X   26099.30939298  .00123771  00000+0  63576-3 0  9992
2 68315  97.2841 223.2547 0001133 103.5674 256.5720 15.80885695  3101
STARLINK-37154          
1 68316U 26057Y   26099.30714009  .00095472  00000+0  49252-3 0  9995
2 68316  97.2841 223.2569 0001345  59.6530 300.4871 15.80869974  3101
STARLINK-37139          
1 68317U 26057Z   26099.30789058  .00175686  00000+0  89597-3 0  9994
2 68317  97.2841 223.2561 0001413  90.0754 270.0676 15.80904249  3107
STARLINK-37113          
1 68318U 26057AA  26099.30638823  .00063191  00000+0  32744-3 0  9997
2 68318  97.2839 223.2583 0001853 116.5957 243.5502 15.80869222  3100
