[{"OBJECT_NAME":"STARLINK-36300","OBJECT_ID":"2026-057K","EPOCH":"2026-04-09T07:38:30.861600","MEAN_MOTION":15.80848097,"ECCENTRICITY":4.129e-5,"INCLINATION":97.284,"RA_OF_ASC_NODE":223.2444,"ARG_OF_PERICENTER":355.1112,"MEAN_ANOMALY":5.0152,"EPHEMERIS_TYPE":0,"CLASSIFICATION_TYPE":"U","NORAD_CAT_ID":68303,"ELEMENT_SET_NO":999,"REV_AT_EPOCH":310,"BSTAR":0.00033666301,"MEAN_MOTION_DOT":0.0006492,"MEAN_MOTION_DDOT":0},{"OBJECT_NAME":"STARLINK-36849","OBJECT_ID":"2026-057L","EPOCH":"2026-04-09T07:36:21.089664","MEAN_MOTION":15.80851351,"ECCENTRICITY":0.00012172,"INCLINATION":97.2839,"RA_OF_ASC_NODE":223.247,"ARG_OF_PERICENTER":86.0158,"MEAN_ANOMALY":274.1249,"EPHEMERIS_TYPE":0,"CLASSIFICATION_TYPE":"U","NORAD_CAT_ID":68304,"ELEMENT_SET_NO":999,"REV_AT_EPOCH":310,"BSTAR":0.00033670118,"MEAN_MOTION_DOT":0.00064938,"MEAN_MOTION_DDOT":0},{"OBJECT_NAME":"STARLINK-36277","OBJECT_ID":"2026-057M","EPOCH":"2026-04-09T06:00:02.000160","MEAN_MOTION":15.75203439,"ECCENTRICITY":0.00012847,"INCLINATION":97.2851,"RA_OF_ASC_NODE":223.1596,"ARG_OF_PERICENTER":84.7977,"MEAN_ANOMALY":217.6426,"EPHEMERIS_TYPE":0,"CLASSIFICATION_TYPE":"U","NORAD_CAT_ID":68305,"ELEMENT_SET_NO":999,"REV_AT_EPOCH":428,"BSTAR":-0.00019040944,"MEAN_MOTION_DOT":-0.00028452,"MEAN_MOTION_DDOT":0},{"OBJECT_NAME":"STARLINK-36307","OBJECT_ID":"2026-057N","EPOCH":"2026-04-09T07:35:16.232640","MEAN_MOTION":15.80880246,"ECCENTRICITY":0.00012988,"INCLINATION":97.284,"RA_OF_ASC_NODE":223.2476,"ARG_OF_PERICENTER":83.351,"MEAN_ANOMALY":276.7906,"EPHEMERIS_TYPE":0,"CLASSIFICATION_TYPE":"U","NORAD_CAT_ID":68306,"ELEMENT_SET_NO":999,"REV_AT_EPOCH":310,"BSTAR":0.00087553866,"MEAN_MOTION_DOT":0.00171402,"MEAN_MOTION_DDOT":0},{"OBJECT_NAME":"STARLINK-36264","OBJECT_ID":"2026-057P","EPOCH":"2026-04-09T07:33:06.393312","MEAN_MOTION":15.80829493,"ECCENTRICITY":0.0001281,"INCLINATION":97.2841,"RA_OF_ASC_NODE":223.2493,"ARG_OF_PERICENTER":2.0772,"MEAN_ANOMALY":358.0501,"EPHEMERIS_TYPE":0,"CLASSIFICATION_TYPE":"U","NORAD_CAT_ID":68307,"ELEMENT_SET_NO":999,"REV_AT_EPOCH":310,"BSTAR":0.00026807274,"MEAN_MOTION_DOT":0.00051542,"MEAN_MOTION_DDOT":0},{"OBJECT_NAME":"STARLINK-37138","OBJECT_ID":"2026-057Q","EPOCH":"2026-04-09T07:32:01.150080","MEAN_MOTION":15.80895505,"ECCENTRICITY":9.698e-5,"INCLINATION":97.284,"RA_OF_ASC_NODE":223.2487,"ARG_OF_PERICENTER":78.6443,"MEAN_ANOMALY":281.4934,"EPHEMERIS_TYPE":0,"CLASSIFICATION_TYPE":"U","NORAD_CAT_ID":68308,"ELEMENT_SET_NO":999,"REV_AT_EPOCH":310,"BSTAR":0.00079023919,"MEAN_MOTION_DOT":0.00154494,"MEAN_MOTION_DDOT":0},{"OBJECT_NAME":"STARLINK-37149","OBJECT_ID":"2026-057R","EPOCH":"2026-04-09T06:00:02.000160","MEAN_MOTION":15.78260639,"ECCENTRICITY":0.00015237,"INCLINATION":97.2842,"RA_OF_ASC_NODE":223.1817,"ARG_OF_PERICENTER":62.8471,"MEAN_ANOMALY":295.5102,"EPHEMERIS_TYPE":0,"CLASSIFICATION_TYPE":"U","NORAD_CAT_ID":68309,"ELEMENT_SET_NO":999,"REV_AT_EPOCH":406,"BSTAR":-0.01256628,"MEAN_MOTION_DOT":-0.01875664,"MEAN_MOTION_DDOT":0},{"OBJECT_NAME":"STARLINK-37148","OBJECT_ID":"2026-057S","EPOCH":"2026-04-09T07:28:46.090848","MEAN_MOTION":15.80898499,"ECCENTRICITY":0.00011047,"INCLINATION":97.2843,"RA_OF_ASC_NODE":223.2513,"ARG_OF_PERICENTER":114.9067,"MEAN_ANOMALY":245.2316,"EPHEMERIS_TYPE":0,"CLASSIFICATION_TYPE":"U","NORAD_CAT_ID":68310,"ELEMENT_SET_NO":999,"REV_AT_EPOCH":310,"BSTAR":0.00068790869,"MEAN_MOTION_DOT":0.00134174,"MEAN_MOTION_DDOT":0},{"OBJECT_NAME":"STARLINK-37140","OBJECT_ID":"2026-057T","EPOCH":"2026-04-09T07:29:51.344448","MEAN_MOTION":15.80876541,"ECCENTRICITY":0.00010728,"INCLINATION":97.2841,"RA_OF_ASC_NODE":223.2514,"ARG_OF_PERICENTER":67.7754,"MEAN_ANOMALY":292.3628,"EPHEMERIS_TYPE":0,"CLASSIFICATION_TYPE":"U","NORAD_CAT_ID":68311,"ELEMENT_SET_NO":999,"REV_AT_EPOCH":310,"BSTAR":0.0005056916,"MEAN_MOTION_DOT":0.00098087,"MEAN_MOTION_DDOT":0},{"OBJECT_NAME":"STARLINK-36854","OBJECT_ID":"2026-057U","EPOCH":"2026-04-09T07:27:41.453280","MEAN_MOTION":15.80907362,"ECCENTRICITY":0.00015349,"INCLINATION":97.2841,"RA_OF_ASC_NODE":223.253,"ARG_OF_PERICENTER":99.1962,"MEAN_ANOMALY":260.948,"EPHEMERIS_TYPE":0,"CLASSIFICATION_TYPE":"U","NORAD_CAT_ID":68312,"ELEMENT_SET_NO":999,"REV_AT_EPOCH":310,"BSTAR":0.00083769651,"MEAN_MOTION_DOT":0.00164053,"MEAN_MOTION_DDOT":0},{"OBJECT_NAME":"STARLINK-36815","OBJECT_ID":"2026-057V","EPOCH":"2026-04-09T07:26:36.464064","MEAN_MOTION":15.80897534,"ECCENTRICITY":0.00012126,"INCLINATION":97.2841,"RA_OF_ASC_NODE":223.2543,"ARG_OF_PERICENTER":95.038,"MEAN_ANOMALY":265.1027,"EPHEMERIS_TYPE":0,"CLASSIFICATION_TYPE":"U","NORAD_CAT_ID":68313,"ELEMENT_SET_NO":999,"REV_AT_EPOCH":310,"BSTAR":0.00076287241,"MEAN_MOTION_DOT":0.0014906,"MEAN_MOTION_DDOT":0},{"OBJECT_NAME":"STARLINK-37155","OBJECT_ID":"2026-057W","EPOCH":"2026-04-09T07:24:26.405280","MEAN_MOTION":15.80927177,"ECCENTRICITY":0.00013817,"INCLINATION":97.2841,"RA_OF_ASC_NODE":223.2558,"ARG_OF_PERICENTER":100.2783,"MEAN_ANOMALY":259.8641,"EPHEMERIS_TYPE":0,"CLASSIFICATION_TYPE":"U","NORAD_CAT_ID":68314,"ELEMENT_SET_NO":999,"REV_AT_EPOCH":310,"BSTAR":0.00097799524,"MEAN_MOTION_DOT":0.00192352,"MEAN_MOTION_DDOT":0},{"OBJECT_NAME":"STARLINK-37150","OBJECT_ID":"2026-057X","EPOCH":"2026-04-09T07:25:31.553472","MEAN_MOTION":15.80885695,"ECCENTRICITY":0.00011337,"INCLINATION":97.2841,"RA_OF_ASC_NODE":223.2547,"ARG_OF_PERICENTER":103.5674,"MEAN_ANOMALY":256.572,"EPHEMERIS_TYPE":0,"CLASSIFICATION_TYPE":"U","NORAD_CAT_ID":68315,"ELEMENT_SET_NO":999,"REV_AT_EPOCH":310,"BSTAR":0.00063576106,"MEAN_MOTION_DOT":0.00123771,"MEAN_MOTION_DDOT":0},{"OBJECT_NAME":"STARLINK-37154","OBJECT_ID":"2026-057Y","EPOCH":"2026-04-09T07:22:16.903776","MEAN_MOTION":15.80869974,"ECCENTRICITY":0.0001345,"INCLINATION":97.2841,"RA_OF_ASC_NODE":223.2569,"ARG_OF_PERICENTER":59.653,"MEAN_ANOMALY":300.4871,"EPHEMERIS_TYPE":0,"CLASSIFICATION_TYPE":"U","NORAD_CAT_ID":68316,"ELEMENT_SET_NO":999,"REV_AT_EPOCH":310,"BSTAR":0.00049251679,"MEAN_MOTION_DOT":0.00095472,"MEAN_MOTION_DDOT":0},{"OBJECT_NAME":"STARLINK-37139","OBJECT_ID":"2026-057Z","EPOCH":"2026-04-09T07:23:21.746112","MEAN_MOTION":15.80904249,"ECCENTRICITY":0.00014136,"INCLINATION":97.2841,"RA_OF_ASC_NODE":223.2561,"ARG_OF_PERICENTER":90.0754,"MEAN_ANOMALY":270.0676,"EPHEMERIS_TYPE":0,"CLASSIFICATION_TYPE":"U","NORAD_CAT_ID":68317,"ELEMENT_SET_NO":999,"REV_AT_EPOCH":310,"BSTAR":0.00089597373,"MEAN_MOTION_DOT":0.00175686,"MEAN_MOTION_DDOT":0},{"OBJECT_NAME":"STARLINK-37113","OBJECT_ID":"2026-057AA","EPOCH":"2026-04-09T07:21:11.943072","MEAN_MOTION":15.80869222,"ECCENTRICITY":0.00018533,"INCLINATION":97.2839,"RA_OF_ASC_NODE":223.2583,"ARG_OF_PERICENTER":116.5957,"MEAN_ANOMALY":243.5502,"EPHEMERIS_TYPE":0,"CLASSIFICATION_TYPE":"U","NORAD_CAT_ID":68318,"ELEMENT_SET_NO":999,"REV_AT_EPOCH":310,"BSTAR":0.00032744232,"MEAN_MOTION_DOT":0.00063191,"MEAN_MOTION_DDOT":0}]
